ONEWEB-0033             
1 45142U 20008M   25202.73029767 -.00000008  00000+0 -59926-4 0  9992
2 45142  87.8805 102.1990 0001934  71.8538 288.2800 13.10370069264937
ONEWEB-0035             
1 45143U 20008N   25202.76099468 -.00000466  00000+0 -13706-2 0  9993
2 45143  87.8814 102.1949 0001925  73.0344 287.0995 13.10375608264667
ONEWEB-0036             
1 45144U 20008P   25202.75105344 -.00000670  00000+0 -19566-2 0  9991
2 45144  87.8821 102.1383 0001738  85.1609 274.9717 13.10378039265094
ONEWEB-0038             
1 45145U 20008Q   25202.72756539  .00000116  00000+0  29023-3 0  9990
2 45145  87.8829  86.9266 0003617  81.2339 278.9198 13.11417528267016
ONEWEB-0039             
1 45146U 20008R   25202.73365635 -.00000166  00000+0 -51209-3 0  9993
2 45146  87.8808 102.1650 0002084  91.2856 268.8510 13.10376902264881
ONEWEB-0040             
1 45147U 20008S   25202.72697394  .00000191  00000+0  50973-3 0  9996
2 45147  87.8816 102.1937 0001859  78.0410 282.0926 13.10371216264586
ONEWEB-0043             
1 45149U 20008U   25202.72862873  .00000090  00000+0  22251-3 0  9990
2 45149  87.8810 102.1785 0001705  91.2576 268.8747 13.10371049264906
ONEWEB-0044             
1 45150U 20008V   25202.75685117 -.00000546  00000+0 -16013-2 0  9995
2 45150  87.8815 102.1646 0001780  84.4120 275.7211 13.10374995265201
